#dV2018 10  7  0  0  0.00000000    8640 U+u   IGS14 FIT TUD 
## 2022      0.00000000    10.00000000 58398 0.0000000000000
+    1   L47  0  0  0  0  0  0  0  0  0  0  0  0  0  0  0  0                          
+          0  0  0  0  0  0  0  0  0  0  0  0  0  0  0  0  0                          
+          0  0  0  0  0  0  0  0  0  0  0  0  0  0  0  0  0                          
+          0  0  0  0  0  0  0  0  0  0  0  0  0  0  0  0  0                          
+          0  0  0  0  0  0  0  0  0  0  0  0  0  0  0  0  0                          
++         0  0  0  0  0  0  0  0  0  0  0  0  0  0  0  0  0                          
++         0  0  0  0  0  0  0  0  0  0  0  0  0  0  0  0  0                          
++         0  0  0  0  0  0  0  0  0  0  0  0  0  0  0  0  0                          
++         0  0  0  0  0  0  0  0  0  0  0  0  0  0  0  0  0                          
++         0  0  0  0  0  0  0  0  0  0  0  0  0  0  0  0  0                          
%c M  cc GPS ccc cccc cccc cccc cccc ccccc ccccc ccccc ccccc                          
%c cc cc ccc ccc cccc cccc cccc cccc ccccc ccccc ccccc ccccc                          
%f  0.0000000  0.000000000  0.00000000000  0.000000000000000                          
%f  0.0000000  0.000000000  0.00000000000  0.000000000000000                          
%i    0    0    0    0      0      0      0      0         0                          
%i    0    0    0    0      0      0      0      0         0                          
/* Created by: RDOD_AR_WGT                                                            
/* Setup     : SWARMA.18.280_RDOD_AR.inp                                              
/* Executed  : 03-Jun-2021 00:32 UTC, by swarmgen@euclid2.lr.tudelft.nl               
/*                                                                                    
*  2018 10 07 10 45 20.00000000                             
PL47  5909.6667615  -246.9688263  3379.2918108 999999.999999
VL47 37963.3421371 -1833.1383436-66284.7351611 999999.999999
*  2018 10 07 10 45 30.00000000                             
PL47  5947.2570684  -248.8139309  3312.7948832 999999.999999
VL47 37216.4778849 -1856.8507334-66707.7199816 999999.999999
*  2018 10 07 10 45 40.00000000                             
PL47  5984.0981454  -250.6820856  3245.8791798 999999.999999
VL47 36464.8982666 -1879.2366978-67122.2779696 999999.999999
*  2018 10 07 10 45 50.00000000                             
PL47  6020.1853255  -252.5719590  3178.5531538 999999.999999
VL47 35708.7002127 -1900.2865453-67528.3563487 999999.999999
*  2018 10 07 10 46 00.00000000                             
PL47  6055.5140389  -254.4822102  3110.8253109 999999.999999
VL47 34947.9811843 -1919.9909121-67925.9034074 999999.999999
*  2018 10 07 10 46 10.00000000                             
PL47  6090.0798135  -256.4114893  3042.7042077 999999.999999
VL47 34182.8391819 -1938.3407622-68314.8684780 999999.999999
*  2018 10 07 10 46 20.00000000                             
PL47  6123.8782758  -258.3584373  2974.1984512 999999.999999
VL47 33413.3727627 -1955.3273894-68695.2019293 999999.999999
*  2018 10 07 10 46 30.00000000                             
PL47  6156.9051506  -260.3216868  2905.3166973 999999.999999
VL47 32639.6810569 -1970.9424226-69066.8551758 999999.999999
*  2018 10 07 10 46 40.00000000                             
PL47  6189.1562627  -262.2998623  2836.0676501 999999.999999
VL47 31861.8637742 -1985.1778346-69429.7806990 999999.999999
*  2018 10 07 10 46 50.00000000                             
PL47  6220.6275364  -264.2915801  2766.4600606 999999.999999
VL47 31080.0211987 -1998.0259457-69783.9320699 999999.999999
*  2018 10 07 10 47 00.00000000                             
PL47  6251.3149969  -266.2954493  2696.5027258 999999.999999
VL47 30294.2541750 -2009.4794276-70129.2639667 999999.999999
*  2018 10 07 10 47 10.00000000                             
PL47  6281.2147704  -268.3100717  2626.2044872 999999.999999
VL47 29504.6640952 -2019.5312987-70465.7321838 999999.999999
*  2018 10 07 10 47 20.00000000                             
PL47  6310.3230847  -270.3340425  2555.5742303 999999.999999
VL47 28711.3528895 -2028.1749196-70793.2936363 999999.999999
*  2018 10 07 10 47 30.00000000                             
PL47  6338.6362699  -272.3659500  2484.6208829 999999.999999
VL47 27914.4230241 -2035.4039862-71111.9063667 999999.999999
*  2018 10 07 10 47 40.00000000                             
PL47  6366.1507589  -274.4043769  2413.3534141 999999.999999
VL47 27113.9774989 -2041.2125252-71421.5295616 999999.999999
*  2018 10 07 10 47 50.00000000                             
PL47  6392.8630876  -276.4478997  2341.7808335 999999.999999
VL47 26310.1198362 -2045.5948917-71722.1235750 999999.999999
*  2018 10 07 10 48 00.00000000                             
PL47  6418.7698958  -278.4950895  2269.9121895 999999.999999
VL47 25502.9540565 -2048.5457677-72013.6499525 999999.999999
*  2018 10 07 10 48 10.00000000                             
PL47  6443.8679278  -280.5445124  2197.7565686 999999.999999
VL47 24692.5846451 -2050.0601617-72296.0714435 999999.999999
*  2018 10 07 10 48 20.00000000                             
PL47  6468.1540322  -282.5947295  2125.3230936 999999.999999
VL47 23879.1165218 -2050.1334065-72569.3519998 999999.999999
*  2018 10 07 10 48 30.00000000                             
PL47  6491.6251630  -284.6442974  2052.6209232 999999.999999
VL47 23062.6550221 -2048.7611558-72833.4567693 999999.999999
*  2018 10 07 10 48 40.00000000                             
PL47  6514.2783797  -286.6917686  1979.6592499 999999.999999
VL47 22243.3058880 -2045.9393805-73088.3520952 999999.999999
*  2018 10 07 10 48 50.00000000                             
PL47  6536.1108476  -288.7356917  1906.4472996 999999.999999
VL47 21421.1752555 -2041.6643663-73334.0055260 999999.999999
*  2018 10 07 10 49 00.00000000                             
PL47  6557.1198386  -290.7746118  1832.9943299 999999.999999
VL47 20596.3696320 -2035.9327124-73570.3858260 999999.999999
*  2018 10 07 10 49 10.00000000                             
PL47  6577.3027309  -292.8070706  1759.3096290 999999.999999
VL47 19768.9958677 -2028.7413349-73797.4629777 999999.999999
*  2018 10 07 10 49 20.00000000                             
PL47  6596.6570100  -294.8316070  1685.4025146 999999.999999
VL47 18939.1611305 -2020.0874737-74015.2081733 999999.999999
*  2018 10 07 10 49 30.00000000                             
PL47  6615.1802686  -296.8467572  1611.2823326 999999.999999
VL47 18106.9728951 -2009.9687052-74223.5938038 999999.999999
*  2018 10 07 10 49 40.00000000                             
PL47  6632.8702072  -298.8510554  1536.9584557 999999.999999
VL47 17272.5389422 -1998.3829370-74422.5934555 999999.999999
*  2018 10 07 10 49 50.00000000                             
PL47  6649.7246340  -300.8430335  1462.4402827 999999.999999
VL47 16435.9673541 -1985.3285296-74612.1819198 999999.999999
*  2018 10 07 10 50 00.00000000                             
PL47  6665.7414655  -302.8212223  1387.7372369 999999.999999
VL47 15597.3665310 -1970.8037328-74792.3352093 999999.999999
*  2018 10 07 10 50 10.00000000                             
PL47  6680.9187268  -304.7841507  1312.8587650 999999.999999
VL47 14756.8451057 -1954.8080770-74963.0305731 999999.999999
*  2018 10 07 10 50 20.00000000                             
PL47  6695.2545518  -306.7303479  1237.8143356 999999.999999
VL47 13914.5119837 -1937.3408855-75124.2465009 999999.999999
*  2018 10 07 10 50 30.00000000                             
PL47  6708.7471833  -308.6583417  1162.6134386 999999.999999
VL47 13070.4763217 -1918.4012766-75275.9627101 999999.999999
*  2018 10 07 10 50 40.00000000                             
PL47  6721.3949734  -310.5666598  1087.2655831 999999.999999
VL47 12224.8474542 -1897.9896457-75418.1601320 999999.999999
*  2018 10 07 10 50 50.00000000                             
PL47  6733.1963836  -312.4538304  1011.7802972 999999.999999
VL47 11377.7349652 -1876.1062750-75550.8209091 999999.999999
*  2018 10 07 10 51 00.00000000                             
PL47  6744.1499853  -314.3183820   936.1671258 999999.999999
VL47 10529.2486735 -1852.7519008-75673.9284099 999999.999999
*  2018 10 07 10 51 10.00000000                             
PL47  6754.2544597  -316.1588442   860.4356299 999999.999999
VL47  9679.4986396 -1827.9275990-75787.4672574 999999.999999
*  2018 10 07 10 51 20.00000000                             
PL47  6763.5085981  -317.9737477   784.5953855 999999.999999
VL47  8828.5951521 -1801.6348002-75891.4233672 999999.999999
*  2018 10 07 10 51 30.00000000                             
PL47  6771.9113024  -319.7616249   708.6559817 999999.999999
VL47  7976.6486952 -1773.8752845-75985.7839866 999999.999999
*  2018 10 07 10 51 40.00000000                             
PL47  6779.4615847  -321.5210101   632.6270198 999999.999999
VL47  7123.7698927 -1744.6511740-76070.5377250 999999.999999
*  2018 10 07 10 51 50.00000000                             
PL47  6786.1585683  -323.2504399   556.5181119 999999.999999
VL47  6270.0694345 -1713.9649273-76145.6745599 999999.999999
*  2018 10 07 10 52 00.00000000                             
PL47  6792.0014866  -324.9484535   480.3388793 999999.999999
VL47  5415.6580017 -1681.8193379-76211.1858058 999999.999999
*  2018 10 07 10 52 10.00000000                             
PL47  6796.9896842  -326.6135931   404.0989513 999999.999999
VL47  4560.6462207 -1648.2175367-76267.0640533 999999.999999
*  2018 10 07 10 52 20.00000000                             
PL47  6801.1226158  -328.2444043   327.8079642 999999.999999
VL47  3705.1446594 -1613.1629973-76313.3031020 999999.999999
*  2018 10 07 10 52 30.00000000                             
PL47  6804.3998471  -329.8394361   251.4755599 999999.999999
VL47  2849.2638591 -1576.6595412-76349.8979174 999999.999999
EOF                                                         
